167P/CINEOS,e,19.0772,295.8298,344.5413,16.25588,0.0150379,0.26784396,130.8704,01/28.0/2025,2000,g  9.5,2.0
# From MPEC 2023-J29
168P/Hergenrother,e,21.5965,355.3968,15.0988,3.586672,0.1450997,0.62134430,289.8860,01/28.0/2025,2000,g 15.5,4.0
# From MPEC 2023-J95
169P/NEAT,e,11.2887,176.0695,218.1119,2.603540,0.2346160,0.76813620,218.9331,01/28.0/2025,2000,g 16.0,2.0
# From MPEC 2025-AE4
170P/Christensen,e,10.1250,142.6463,224.8570,4.197290,0.1146174,0.30523809,74.8217,01/28.0/2025,2000,g 12.0,4.0
# From MPC102102
171P/Spahr,e,21.9507,101.7015,347.0890,3.551939,0.1472332,0.50271040,324.6562,01/28.0/2025,2000,g 13.5,4.0
# From MPEC 2025-AE4
172P/Yeung,e,11.2240,30.8819,208.9247,4.222560,0.1135900,0.20473763,328.3422,01/28.0/2025,2000,g 13.0,4.0
# From MPEC 2023-N01
173P/Mueller,e,16.4931,100.3469,29.2488,5.714471,0.0721506,0.26230726,82.0751,01/28.0/2025,2000,g  7.5,4.0
# From MPC 92985
174P/Echeclus,e,4.3416,173.3259,163.4509,10.75912,0.0279279,0.45513631,99.6851,01/28.0/2025,2000,g  9.4,2.0
# From MPC114608
175P/Hergenrother,e,4.9229,109.8612,74.8467,3.686844,0.1392265,0.37691302,278.8297,01/28.0/2025,2000,g 14.0,4.0
# From MPC 89015
176P/LINEAR,e,0.2312,345.6344,34.4700,3.194995,0.1725833,0.19197673,138.0643,01/28.0/2025,2000,g 15.1,2.0
# From MPEC 2020-L06
177P/Barnard,e,31.0089,271.8676,60.7408,24.51569,0.0081197,0.95436513,54.5964,01/28.0/2025,2000,g 15.0,4.0
# From MPEC 2024-R10
178P/Hug-Bell,e,11.0922,102.7858,297.9590,3.632736,0.1423486,0.48239561,235.5510,01/28.0/2025,2000,g 13.5,4.0
# From MPEC 2024-EF7
179P/Jedicke,e,19.8905,115.5097,297.1905,5.936698,0.0681376,0.30558669,66.2367,01/28.0/2025,2000,g  2.5,8.0
# From MPEC 2024-F34
180P/NEAT,e,16.8624,84.5602,94.6097,3.867899,0.1295661,0.35373218,73.3235,01/28.0/2025,2000,g 11.0,4.0
# From MPC 89012
181P/Shoemaker-Levy,e,17.4780,35.4334,336.2974,3.878771,0.1290217,0.69996882,143.9260,01/28.0/2025,2000,g 11.5,4.0
# From MPEC 2024-UQ8
182P/LONEOS,e,16.2320,72.4617,54.1959,2.948939,0.1946280,0.66385724,192.9364,01/28.0/2025,2000,g 18.0,4.0
# From MPEC 2024-VJ2
183P/Korlevic-Juric,e,18.7442,3.6549,163.2432,4.702615,0.0966485,0.10256617,266.5661,01/28.0/2025,2000,g 12.5,2.0
# From MPEC 2020-W26
184P/Lovas,e,4.5709,173.2715,186.5659,3.800281,0.1330395,0.54999239,206.9165,01/28.0/2025,2000,g 13.5,4.0
# From MPEC 2024-F91
185P/Petriew,e,14.0123,214.1196,181.9162,3.099416,0.1806276,0.69953401,102.0813,01/28.0/2025,2000,g 15.0,4.0
# From MPEC 2022-X67
186P/Garradd,e,28.6379,325.9643,268.6974,4.853701,0.0921711,0.12402907,205.8369,01/28.0/2025,2000,g  7.5,4.0
# From MPEC 2020-SI8
187P/LINEAR,e,13.6629,109.8417,131.4065,4.553909,0.1014209,0.15547457,248.3205,01/28.0/2025,2000,g  9.0,4.0
# From MPEC 2023-J29
188P/LINEAR-Mueller,e,10.5242,358.9194,26.8134,4.365916,0.1080416,0.41679604,312.4388,01/28.0/2025,2000,g 11.5,4.0
# From MPEC 2022-QD9
189P/NEAT,e,20.1122,281.6773,16.2007,2.941077,0.1954089,0.58999241,172.5412,01/28.0/2025,2000,g 19.0,4.0
# From MPEC 2025-AH4
190P/Mueller,e,2.1746,335.4982,50.5278,4.227753,0.1133808,0.52232020,3.9529,01/28.0/2025,2000,g 13.0,4.0
# From MPEC 2024-TD8
191P/McNaught,e,8.8394,98.1799,284.2702,3.640414,0.1418985,0.38532053,200.0209,01/28.0/2025,2000,g 13.0,4.0
# From MPEC 2025-AE4
192P/Shoemaker-Levy,e,24.5842,51.6026,313.0685,6.463040,0.0599858,0.77349416,14.9044,01/28.0/2025,2000,g 15.0,4.0
# From MPEC 2024-R10
193P/LINEAR-NEAT,e,10.6802,335.1875,8.1297,3.579147,0.1455575,0.39273727,182.3550,01/28.0/2025,2000,g 14.0,4.0
# From MPEC 2024-GJ3
194P/LINEAR,e,11.8042,349.5187,128.5950,4.121891,0.1177767,0.56336116,42.2480,01/28.0/2025,2000,g 16.0,4.0
# From MPEC 2025-AH4
195P/Hill,e,36.4198,243.1062,250.5206,6.450933,0.0601548,0.31159176,348.6318,01/28.0/2025,2000,g  8.5,4.0
# From MPEC 2024-GJ3
196P/Tichy,e,19.2976,24.1217,12.1272,3.805771,0.1327517,0.42769228,109.0813,01/28.0/2025,2000,g 13.5,4.0
# From MPEC 2023-UR6
197P/LINEAR,e,25.4780,66.2427,189.8550,2.902730,0.1992939,0.62193774,156.0130,01/28.0/2025,2000,g 16.5,2.0
# From MPEC 2024-VJ2
198P/ODAS,e,1.3400,358.4693,69.0422,3.592059,0.1447734,0.44463669,323.5026,01/28.0/2025,2000,g 12.5,4.0
# From MPEC 2024-Q20
199P/Shoemaker,e,24.9388,92.3467,191.7684,5.875088,0.0692122,0.50455578,37.3431,01/28.0/2025,2000,g 10.0,4.0
# From MPEC 2022-C56
200P/Larsen,e,12.0961,234.8059,134.3937,4.952285,0.0894325,0.33143607,179.7279,01/28.0/2025,2000,g  9.0,4.0
# From MPC 93588
201P/LONEOS,e,5.7381,41.5318,19.7913,3.354650,0.1604107,0.63758150,215.1492,01/28.0/2025,2000,g 14.0,4.0
# From MPEC 2023-XP6
202P/Scotti,e,2.1418,177.3009,274.4935,4.099723,0.1187332,0.25122790,30.3581,01/28.0/2025,2000,g 13.5,4.0
# From MPEC 2025-A40
203P/Korlevic,e,2.9757,290.2237,154.9122,4.668354,0.0977144,0.31641911,174.6994,01/28.0/2025,2000,g 14.5,2.0
# From MPEC 2024-JU4
204P/LINEAR-NEAT,e,6.5976,108.4745,356.7146,3.583933,0.1452661,0.48828584,116.6218,01/28.0/2025,2000,g 14.0,4.0
# From MPEC 2023_O39
205P/Giacobini,e,15.3015,179.6211,154.1681,3.543019,0.1477896,0.56724951,164.2141,01/28.0/2025,2000,g 13.0,4.0
# From MPC 75725
206P/Barnard-Boattini,e,33.6234,202.3467,189.5727,3.491247,0.1510891,0.55125303,215.2787,01/28.0/2025,2000,g 19.0,4.0
# From MPEC 2024-NE4
207P/NEAT,e,10.1998,198.1486,273.0101,3.885449,0.1286892,0.75851102,46.6051,01/28.0/2025,2000,g 16.0,4.0
# From MPEC 2025-A40
208P/McMillan,e,4.4123,36.3356,310.7129,4.038680,0.1214353,0.37386402,19.0618,01/28.0/2025,2000,g 12.5,4.0
# From MPEC 2024-TD8
209P/LINEAR,e,21.2824,62.7687,152.4849,2.958124,0.1937222,0.67401349,38.2617,01/28.0/2025,2000,g 17.0,2.0
# From MPC105242
210P/Christensen,e,10.2821,93.8252,345.9119,3.161195,0.1753587,0.83408085,307.6184,01/28.0/2025,2000,g 13.5,4.0
# From MPEC 2024-JU4
211P/Hill,e,18.9235,117.1022,4.3353,3.548805,0.1474283,0.34444000,124.7226,01/28.0/2025,2000,g 12.5,4.0
# From MPEC 2024-GJ3
212P/NEAT,e,22.1489,97.9724,14.0441,3.902140,0.1278644,0.58673211,35.5299,01/28.0/2025,2000,g 17.0,2.0
# From MPEC 2025-A40
213P/VanNess,e,10.3896,311.1297,6.1307,3.352298,0.1605795,0.40885283,71.0695,01/28.0/2025,2000,g 10.5,4.0
# From MPC 76570
213P-B/Van Ness,e,10.3641,5.6069,311.6532,3.352405,0.1605718,0.40901514,70.9240,01/28.0/2025,2000,g 17.0,4.0
# From MPC 76570
213P-C/Van Ness,e,10.3614,5.5855,311.6577,3.351780,0.1606167,0.40886237,71.2105,01/28.0/2025,2000,g 17.5,4.0
# From MPC 92986
214P/LINEAR,e,15.1906,348.2133,190.1220,3.616785,0.1432913,0.48613214,122.4816,01/28.0/2025,2000,g 13.0,4.0
# From MPEC 2024-F91
215P/NEAT,e,10.5765,56.6749,262.3136,4.335213,0.1091914,0.16501369,207.4897,01/28.0/2025,2000,g 11.0,4.0
# From MPEC 2024-N80
216P/LINEAR,e,9.0618,359.7893,151.7525,3.859763,0.1299760,0.44893883,50.3088,01/28.0/2025,2000,g 13.0,4.0
# From MPEC 2024-LE0
217P/LINEAR,e,12.8654,125.3717,247.0347,3.944656,0.1258028,0.68910539,345.2884,01/28.0/2025,2000,g 12.0,4.0
# From MPEC 2022-K19
218P/LINEAR,e,2.7246,174.8155,61.1734,3.065698,0.1836158,0.63084478,286.5929,01/28.0/2025,2000,g 16.0,4.0
# From MPEC 2025-A40
219P/LINEAR,e,11.5350,230.9506,107.7780,3.651655,0.1412438,0.35490653,49.2398,01/28.0/2025,2000,g 11.0,4.0
# From MPEC 2024-A43
220P/McNaught,e,8.1214,150.0954,180.5964,3.119810,0.1788594,0.50045440,270.1871,01/28.0/2025,2000,g 15.0,4.0
# From MPEC 2022-UY9
221P/LINEAR,e,11.2851,228.8234,39.7063,3.403303,0.1569832,0.51403959,176.3498,01/28.0/2025,2000,g 14.5,4.0
# From MPC 92277
222P/LINEAR,e,5.0964,6.7658,346.2822,2.897082,0.1998770,0.71475687,51.9893,01/28.0/2025,2000,g 20.0,4.0
# From MPEC 2023-A50
223P/Skiff,e,27.0068,346.7155,37.9772,4.158110,0.1162412,0.41636432,254.4938,01/28.0/2025,2000,g 12.0,4.0
# From MPEC 2024-L77
224P/LINEAR-NEAT,e,13.3034,40.0410,16.7989,3.446692,0.1540282,0.40571008,131.0464,01/28.0/2025,2000,g 15.5,4.0
# From MPEC 2024-F91
225P/LINEAR,e,21.3637,14.2073,3.9073,3.647465,0.1414873,0.63826806,76.2696,01/28.0/2025,2000,g 18.0,4.0
# From MPEC 2024-MB8
226P/Pigott-LINEAR-Kowalski,e,44.0453,54.0107,341.0310,3.765425,0.1348910,0.52895306,53.6717,01/28.0/2025,2000,g 12.5,4.0
# From MPEC 2025-AE4
227P/Catalina-LINEAR,e,7.5079,36.8073,105.5805,3.437216,0.1546657,0.52764529,50.3764,01/28.0/2025,2000,g 16.5,2.0
# From MPEC 2022-HC2
228P/LINEAR,e,7.9147,30.9608,114.7601,4.162911,0.1160402,0.17723501,207.2743,01/28.0/2025,2000,g 14.1,4.0
# From MPEC 2024-YC7
229P/Gibbs,e,26.0973,157.8839,224.2094,3.922931,0.1268493,0.37792139,355.3367,01/28.0/2025,2000,g 13.0,4.0
# From MPEC 2024-P23
230P/LINEAR,e,15.4715,106.9295,313.5695,3.454782,0.1534875,0.54557012,160.4404,01/28.0/2025,2000,g 13.0,4.0
# From MPEC 2023-SQ0
231P/LINEAR-NEAT,e,12.2717,132.8073,43.8434,4.059068,0.1205215,0.24017327,249.2061,01/28.0/2025,2000,g 14.5,2.0
# From MPC112394
232P/Hill,e,14.6433,56.0198,53.2671,4.470636,0.1042678,0.33602605,221.1661,01/28.0/2025,2000,g 11.5,4.0
# From MPEC 2021-N06
233P/La Sagra,e,11.2888,74.8994,27.0178,3.026654,0.1871802,0.41293500,295.3965,01/28.0/2025,2000,g 15.0,4.0
# From MPEC 2025-A40
234P/LINEAR,e,11.5344,179.5672,357.4261,3.797285,0.1331970,0.25713988,12.8398,01/28.0/2025,2000,g 12.0,4.0
# From MPEC 2025-AE4
235P/LINEAR,e,9.8134,200.2178,352.0541,3.449926,0.1538117,0.42649180,309.4884,01/28.0/2025,2000,g 12.0,4.0
# From MPEC 2024-P23
236P/LINEAR,e,16.3557,245.5691,119.4179,3.724309,0.1371310,0.50914634,359.0660,01/28.0/2025,2000,g 14.0,4.0
# From MPEC 2024-YC7
237P/LINEAR,e,14.0163,245.3540,25.4690,3.515020,0.1495589,0.43327767,93.3668,01/28.0/2025,2000,g 14.5,2.0
# From MPEC 2024-L77
238P/Read,e,1.2638,51.6451,324.2728,3.167076,0.1748704,0.25078861,169.2423,01/28.0/2025,2000,g 14.5,4.0
# From MPEC 2021-F20
239P/LINEAR,e,11.3077,255.9457,220.3632,4.464343,0.1044883,0.63141532,230.7846,01/28.0/2025,2000,g 17.5,2.0
# From MPEC 2024-YC7
240P/NEAT,e,23.5371,74.9158,352.0601,3.860418,0.1299429,0.45035495,317.6434,01/28.0/2025,2000,g 11.0,4.0
# From MPEC 2022-J42
241P/LINEAR,e,21.0946,305.4285,111.5889,4.926886,0.0901250,0.61029677,115.5148,01/28.0/2025,2000,g 13.5,4.0
# From MPEC 2025-AH4
242P/Spahr,e,32.4275,180.2902,244.9191,5.537113,0.0756448,0.28272950,2.7073,01/28.0/2025,2000,g  8.0,4.0
